COSMOS 2433 (720)       
1 32275U 07052A   25011.10042017 -.00000080  00000+0  00000+0 0  9994
2 32275  65.8511 333.4487 0004745 267.3758  92.5597  2.13103870133938
COSMOS 2432 (719)       
1 32276U 07052B   25011.24056125 -.00000080  00000+0  00000+0 0  9995
2 32276  65.8662 333.5619 0011867 318.9288  94.0878  2.13103093133967
COSMOS 2434 (721)       
1 32393U 07065A   25010.53153337  .00000118  00000+0  00000+0 0  9994
2 32393  64.3170 209.5563 0005028  73.3564 102.0277  2.13101274132664
COSMOS 2436 (723)       
1 32395U 07065C   25011.24101133  .00000110  00000+0  00000+0 0  9994
2 32395  64.3254 209.5991 0017596  10.0294 124.1484  2.13100080132608
COSMOS 2456 (730)       
1 36111U 09070A   25011.50913674 -.00000036  00000+0  00000+0 0  9990
2 36111  64.7134  88.8116 0004242 296.3400  63.9127  2.13103505117318
COSMOS 2457 (733)       
1 36112U 09070B   25011.41353394 -.00000037  00000+0  00000+0 0  9999
2 36112  64.6982  88.6691 0004331 173.1850 245.9434  2.13100944117312
COSMOS 2460 (732)       
1 36402U 10007C   25011.55973549 -.00000081  00000+0  00000+0 0  9997
2 36402  65.7030 332.0623 0002560 303.0023 222.9307  2.13106073115613
COSMOS 2476 (744)       
1 37867U 11064A   25010.27143126 -.00000042  00000+0  00000+0 0  9992
2 37867  64.9818  90.5658 0024208 236.1958 165.6854  2.13101435102628
COSMOS 2477 (745)       
1 37868U 11064B   25011.49920394 -.00000037  00000+0  00000+0 0  9992
2 37868  64.9893  90.5986 0021387 237.2024 205.7440  2.13102831102647
COSMOS 2475 (743)       
1 37869U 11064C   25011.44989701 -.00000037  00000+0  00000+0 0  9995
2 37869  64.9963  90.6171 0026353 251.3092 111.2656  2.13101473102655
COSMOS 2485 (747)       
1 39155U 13019A   25011.09642770 -.00000039  00000+0  00000+0 0  9992
2 39155  65.1377  91.1650 0024636 232.3342 127.4804  2.13104268 91155
COSMOS 2492 (754)       
1 39620U 14012A   25010.11358143 -.00000076  00000+0  00000+0 0  9994
2 39620  65.5839 331.6579 0014807 316.7759  43.1000  2.13103050 84094
COSMOS 2500 (755)       
1 40001U 14032A   25011.22872264 -.00000081  00000+0  00000+0 0  9995
2 40001  65.5201 331.4090 0006814 223.4545 136.4817  2.13105890 82335
COSMOS 2501 (702K)      
1 40315U 14075A   25010.07659528  .00000120  00000+0  00000+0 0  9991
2 40315  63.6177 208.4911 0019064 203.4703 156.4946  2.13101328 78707
COSMOS 2514 (751)       
1 41330U 16008A   25010.99815881 -.00000080  00000+0  00000+0 0  9990
2 41330  65.3132 330.8736 0010924 223.3532 136.5515  2.13102469 69491
COSMOS 2522 (752)       
1 42939U 17055A   25011.30700540  .00000109  00000+0  00000+0 0  9991
2 42939  64.0786 209.6587 0005682 225.8579 134.1466  2.13101847 56852
COSMOS 2527 (756)       
1 43508U 18053A   25010.79735570 -.00000040  00000+0  00000+0 0  9991
2 43508  65.2969  91.3704 0009264 231.8503 128.1033  2.13102155 51145
COSMOS 2529 (757)       
1 43687U 18086A   25009.95736842  .00000122  00000+0  00000+0 0  9994
2 43687  64.2943 210.2732 0006623 259.3087 100.6720  2.13101934 48132
COSMOS 2534 (758)       
1 44299U 19030A   25010.95242865  .00000114  00000+0  00000+0 0  9994
2 44299  64.3676 210.2123 0008899 288.8436 248.7536  2.13101998 43798
COSMOS 2544 (759)       
1 44850U 19088A   25010.27233257 -.00000041  00000+0  00000+0 0  9990
2 44850  65.2837  91.2212 0014382 253.4939 106.3840  2.13101907 39574
COSMOS 2545 (760)       
1 45358U 20018A   25011.40750199 -.00000082  00000+0  00000+0 0  9999
2 45358  64.6518 330.7005 0010885 255.1880 104.6815  2.13102422 37547
COSMOS 2547 (705K)      
1 46805U 20075A   25011.12453780  .00000112  00000+0  00000+0 0  9998
2 46805  64.5971 209.9098 0005680 230.5356 129.4667  2.13102871 32787
COSMOS 2557 (706K)      
1 52984U 22075A   25011.29086083 -.00000082  00000+0  00000+0 0  9998
2 52984  64.5842 332.8153 0013694 281.8694  77.9670  2.13101735 19598
COSMOS 2559 (707K)      
1 54031U 22130A   25011.23440688 -.00000082  00000+0  00000+0 0  9994
2 54031  64.5563 332.9277 0007196 237.0272 122.8939  2.13101139 17567
COSMOS 2564 (761)       
1 54377U 22161A   25010.95506701  .00000114  00000+0  00000+0 0  9993
2 54377  64.7386 210.0577 0007855 204.2678 155.7486  2.13102015 16501
COSMOS 2569 (703K)      
1 57517U 23114A   25011.43998650 -.00000037  00000+0  00000+0 0  9998
2 57517  65.0141  90.2561 0011218 289.5815  70.3386  2.13104142 11140
